KUIPER-00304            
1 68599U 26072AC  26099.44148316  .00019925  00000+0  56272-3 0  9991
2 68599  51.8660 149.4287 0009659 132.2113 227.9694 15.36315237   805
